H1 CPF 01  gfz 2021 08 24 00  7361 tandemx   
H2 1003001  6202 36605    2021 08 24 00 59 42 2021 08 29 00 00 42   120 1 1  0 0 0
H9
10 0 59450  53262.000000  0    1220257.819   2611016.769  -6263790.458
10 0 59450  53382.000000  0    1824889.667   3163942.222  -5847922.435
10 0 59450  53502.000000  0    2406968.956   3651594.408  -5329879.980
10 0 59450  53622.000000  0    2955144.755   4065946.185  -4718625.747
10 0 59450  53742.000000  0    3458503.419   4400416.531  -4024764.108
10 0 59450  53862.000000  0    3906787.417   4649982.247  -3260367.177
10 0 59450  53982.000000  0    4290607.911   4811260.585  -2438771.797
10 0 59450  54102.000000  0    4601644.447   4882559.773  -1574350.064
10 0 59450  54222.000000  0    4832828.543   4863897.826   -682258.686
10 0 59450  54342.000000  0    4978505.591   4756985.855    221831.425
10 0 59450  54462.000000  0    5034568.199   4565176.851   1122016.625
10 0 59450  54582.000000  0    4998560.820   4293382.713   2002447.150
10 0 59450  54702.000000  0    4869752.925   3947959.438   2847615.435
10 0 59450  54822.000000  0    4649175.248   3536562.100   3642638.569
10 0 59450  54942.000000  0    4339619.173   3067975.197   4373526.551
10 0 59450  55062.000000  0    3945601.561   2551922.990   5027431.095
10 0 59450  55182.000000  0    3473294.920   1998864.750   5592873.218
10 0 59450  55302.000000  0    2930422.881   1419779.355   6059941.679
10 0 59450  55422.000000  0    2326128.348    825944.261   6420461.141
10 0 59450  55542.000000  0    1670815.049    228714.619   6668127.933
10 0 59450  55662.000000  0     975965.831   -360692.435   6798615.313
10 0 59450  55782.000000  0     253939.491   -931408.392   6809645.853
10 0 59450  55902.000000  0    -482249.746  -1473113.733   6701027.923
10 0 59450  56022.000000  0   -1219166.675  -1976224.330   6474658.182
10 0 59450  56142.000000  0   -1943199.070  -2432060.887   6134488.898
10 0 59450  56262.000000  0   -2640806.682  -2832998.489   5686463.982
10 0 59450  56382.000000  0   -3298775.818  -3172597.314   5138423.863
10 0 59450  56502.000000  0   -3904474.895  -3445709.893   4499973.643
10 0 59450  56622.000000  0   -4446101.326  -3648561.588   3782318.195
10 0 59450  56742.000000  0   -4912916.522  -3778803.761   2998068.596
10 0 59450  56862.000000  0   -5295464.873  -3835538.822   2161022.186
10 0 59450  56982.000000  0   -5585771.827  -3819316.380   1285917.235
10 0 59450  57102.000000  0   -5777513.926  -3732098.508    388167.458
10 0 59450  57222.000000  0   -5866157.358  -3577195.686   -516416.950
10 0 59450  57342.000000  0   -5849061.344  -3359175.388  -1411916.972
10 0 59450  57462.000000  0   -5725542.166  -3083744.317  -2282595.079
10 0 59450  57582.000000  0   -5496896.451  -2757608.224  -3113178.569
10 0 59450  57702.000000  0   -5166385.499  -2388314.215  -3889131.455
10 0 59450  57822.000000  0   -4739180.858  -1984078.921  -4596909.198
10 0 59450  57942.000000  0   -4222273.658  -1553607.698  -5224192.080
10 0 59450  58062.000000  0   -3624349.860  -1105908.526  -5760093.489
10 0 59450  58182.000000  0   -2955635.050   -650104.969  -6195339.043
10 0 59450  58302.000000  0   -2227713.314   -195252.748  -6522415.649
10 0 59450  58422.000000  0   -1453322.966    249836.380  -6735689.575
10 0 59450  58542.000000  0    -646134.175    676760.168  -6831492.194
10 0 59450  58662.000000  0     179487.671   1077680.161  -6808176.031
10 0 59450  58782.000000  0    1008730.551   1445461.241  -6666139.781
10 0 59450  58902.000000  0    1826595.304   1773795.513  -6407824.913
10 0 59450  59022.000000  0    2618161.707   2057309.588  -6037678.104
10 0 59450  59142.000000  0    3368856.779   2291652.079  -5562082.197
10 0 59450  59262.000000  0    4064720.037   2473560.540  -4989256.305
10 0 59450  59382.000000  0    4692664.765   2600907.681  -4329126.144
10 0 59450  59502.000000  0    5240729.384   2672725.000  -3593162.130
10 0 59450  59622.000000  0    5698311.882   2689202.980  -2794188.363
10 0 59450  59742.000000  0    6056384.787   2651668.204  -1946166.034
10 0 59450  59862.000000  0    6307683.911   2562536.459  -1063950.074
10 0 59450  59982.000000  0    6446864.315   2425242.570   -163027.031
10 0 59450  60102.000000  0    6470620.557   2244148.414    740763.162
10 0 59450  60222.000000  0    6377764.797   2024430.552   1631512.461
10 0 59450  60342.000000  0    6169266.047   1771952.920   2493532.562
10 0 59450  60462.000000  0    5848244.131   1493124.359   3311641.032
10 0 59450  60582.000000  0    5419919.977   1194746.426   4071436.058
10 0 59450  60702.000000  0    4891522.770    883855.154   4759554.825
10 0 59450  60822.000000  0    4272159.519    567561.679   5363909.209
10 0 59450  60942.000000  0    3572648.671    252894.036   5873897.953
10 0 59450  61062.000000  0    2805320.770    -53355.195   6280588.152
10 0 59450  61182.000000  0    1983794.696   -344771.092   6576864.867
10 0 59450  61302.000000  0    1122732.191   -615447.559   6757550.535
10 0 59450  61422.000000  0     237572.826   -860105.318   6819491.070
10 0 59450  61542.000000  0    -655744.007  -1074193.561   6761606.293
10 0 59450  61662.000000  0   -1541065.373  -1253974.499   6584906.841
10 0 59450  61782.000000  0   -2402315.462  -1396588.566   6292476.585
10 0 59450  61902.000000  0   -3223785.452  -1500099.104   5889422.630
10 0 59450  62022.000000  0   -3990422.136  -1563517.518   5382794.143
10 0 59450  62142.000000  0   -4688109.180  -1586808.746   4781465.057
10 0 59450  62262.000000  0   -5303934.069  -1570875.296   4095983.526
10 0 59450  62382.000000  0   -5826434.913  -1517519.951   3338389.660
10 0 59450  62502.000000  0   -6245821.851  -1429388.117   2522006.091
10 0 59450  62622.000000  0   -6554170.811  -1309892.040   1661204.272
10 0 59450  62742.000000  0   -6745583.393  -1163117.660    771146.175
10 0 59450  62862.000000  0   -6816304.980   -993715.768   -132490.573
10 0 59450  62982.000000  0   -6764800.264   -806780.769  -1033797.612
10 0 59450  63102.000000  0   -6591783.691   -607720.256  -1916925.124
10 0 59450  63222.000000  0   -6300204.462   -402118.889  -2766367.508
10 0 59450  63342.000000  0   -5895188.782   -195600.929  -3567241.628
10 0 59450  63462.000000  0   -5383937.538      6307.162  -4305551.232
10 0 59450  63582.000000  0   -4775584.484    198309.403  -4968429.748
10 0 59450  63702.000000  0   -4081020.583    375465.246  -5544359.126
10 0 59450  63822.000000  0   -3312687.756    533303.373  -6023361.662
10 0 59450  63942.000000  0   -2484347.575    667922.084  -6397160.974
10 0 59450  64062.000000  0   -1610831.921    776075.199  -6659312.934
10 0 59450  64182.000000  0    -707777.301    855242.126  -6805306.420
10 0 59450  64302.000000  0     208650.948    903681.030  -6832630.986
10 0 59450  64422.000000  0    1122039.759    920463.815  -6740815.464
10 0 59450  64542.000000  0    2016015.687    905493.117  -6531437.883
10 0 59450  64662.000000  0    2874532.736    859501.245  -6208101.143
10 0 59450  64782.000000  0    3682155.889    784030.848  -5776376.959
10 0 59450  64902.000000  0    4424335.573    681396.860  -5243719.061
10 0 59450  65022.000000  0    5087671.128    554630.908  -4619346.435
10 0 59450  65142.000000  0    5660158.915    407409.225  -3914094.855
10 0 59450  65262.000000  0    6131418.052    243964.321  -3140238.045
10 0 59450  65382.000000  0    6492889.767     68982.803  -2311281.787
10 0 59450  65502.000000  0    6738006.672   -112509.156  -1441731.854
10 0 59450  65622.000000  0    6862324.272   -295269.813   -546838.834
10 0 59450  65742.000000  0    6863611.644   -473971.950    357673.038
10 0 59450  65862.000000  0    6741899.589   -643336.892   1255888.784
10 0 59450  65982.000000  0    6499483.002   -798268.370   2131991.138
10 0 59450  66102.000000  0    6140877.699   -933982.717   2970549.048
10 0 59450  66222.000000  0    5672730.416  -1046131.915   3756797.334
10 0 59450  66342.000000  0    5103688.840  -1130916.322   4476901.671
10 0 59450  66462.000000  0    4444232.329  -1185185.438   5118205.409
10 0 59450  66582.000000  0    3706468.539  -1206521.903   5669451.514
10 0 59450  66702.000000  0    2903901.943  -1193308.372   6120977.435
10 0 59450  66822.000000  0    2051178.863  -1144776.678   6464879.159
10 0 59450  66942.000000  0    1163815.490  -1061037.816   6695144.252
10 0 59450  67062.000000  0     257911.457   -943091.825   6807751.645
10 0 59450  67182.000000  0    -650143.548   -792817.353   6800736.268
10 0 59450  67302.000000  0   -1543965.229   -612941.949   6674220.196
10 0 59450  67422.000000  0   -2407468.804   -406992.718   6430410.483
10 0 59450  67542.000000  0   -3225157.247   -179228.270   6073563.752
10 0 59450  67662.000000  0   -3982400.822     65446.980   5609917.662
10 0 59450  67782.000000  0   -4665703.294    321584.762   5047588.145
10 0 59450  67902.000000  0   -5262949.042    583309.208   4396433.029
10 0 59450  68022.000000  0   -5763626.554    844445.652   3667883.534
10 0 59450  68142.000000  0   -6159022.189   1098659.342   2874746.105
10 0 59450  68262.000000  0   -6442381.688   1339601.039   2030977.760
10 0 59450  68382.000000  0   -6609034.451   1561055.580   1151437.711
10 0 59450  68502.000000  0   -6656477.843   1757090.499    251619.678
10 0 59450  68622.000000  0   -6584416.806   1922200.503   -652629.945
10 0 59450  68742.000000  0   -6394758.303   2051443.284  -1545400.175
10 0 59450  68862.000000  0   -6091562.226   2140564.218  -2411003.411
10 0 59450  68982.000000  0   -5680949.374   2186107.071  -3234258.894
10 0 59450  69102.000000  0   -5170967.751   2185506.786  -4000763.752
10 0 59450  69222.000000  0   -4571423.019   2137162.213  -4697144.954
10 0 59450  69342.000000  0   -3893678.380   2040488.125  -5311288.384
10 0 59450  69462.000000  0   -3150429.618   1895945.859  -5832541.218
10 0 59450  69582.000000  0   -2355461.441   1705052.333  -6251886.653
10 0 59450  69702.000000  0   -1523387.814   1470367.225  -6562089.464
99
